STARLETTE               
1 07646U 75010A   20113.84369766 -.00000127  00000-0  11280-4 0  9999
2 07646  49.8252 330.9562 0205759 202.4526 156.7261 13.82307301283810
LAGEOS 1                
1 08820U 76039A   20113.73999981  .00000025  00000-0  00000-0 0  9992
2 08820 109.8261 129.8714 0044256  62.3059 219.1886  6.38664710769980
AJISAI (EGS)            
1 16908U 86061A   20113.86522910 -.00000090  00000-0  51601-4 0  9992
2 16908  50.0086 214.6125 0011386 222.1412 295.6743 12.44491674200818
COSMOS 1989 (ETALON 1)  
1 19751U 89001C   20113.62941925  .00000082  00000-0  00000-0 0  9996
2 19751  64.1797 149.3819 0022632 211.0326 232.2789  2.13156447243481
COSMOS 2024 (ETALON 2)  
1 20026U 89039C   20113.68262102 -.00000071  00000-0  00000+0 0  9991
2 20026  65.4711  27.0278 0018095 221.4535  41.4924  2.13204457240601
LAGEOS 2                
1 22195U 92070B   20113.69971910 -.00000009  00000-0  00000-0 0  9996
2 22195  52.6475 246.4057 0137989 284.7559 127.9059  6.47294005650208
STELLA                  
1 22824U 93061B   20113.89083021 -.00000049  00000-0 -10578-5 0  9996
2 22824  98.9593 103.3422 0005353 268.4235 178.4300 14.27380323384319
LARES                   
1 38077U 12006A   20113.80277614 -.00000059  00000-0 -12789-3 0  9992
2 38077  69.4934 169.2688 0008941 345.4918  14.5850 12.54930736375332
